NORAD_CAT_ID,OBJECT_NAME,OBJECT_TYPE,EPOCH,MEAN_MOTION,ECCENTRICITY,INCLINATION,RA_OF_ASC_NODE,ARG_OF_PERICENTER,MEAN_ANOMALY,BSTAR,MEAN_MOTION_DOT,MEAN_MOTION_DDOT,TLE_LINE0,TLE_LINE1,TLE_LINE2,SEMIMAJOR_AXIS,PERIOD,APOGEE,PERIGEE,DECAYED
55274.0,STARLINK-5236,PAYLOAD,2023-02-26 05:15:29,15.69969356,0.0003605,70.0007,322.968,264.118,95.9605,0.0005804,0.00070297,0.0,0 STARLINK-5236,1 55274U 23010F   23057.21909111  .00070297  00000-0  58040-3 0  9995,2 55274  70.0007 322.9680 0003605 264.1180  95.9605 15.69969356  6420,6737.122,91.722,361.415,356.558,0.0
55274.0,STARLINK-5236,PAYLOAD,2023-02-26 23:36:31,15.69963197,0.0002615,70.0004,320.8183,270.0697,90.0199,0.00054136,0.0006549,0.0,0 STARLINK-5236,1 55274U 23010F   23057.98369862  .00065490  00000-0  54136-3 0  9993,2 55274  70.0004 320.8183 0002615 270.0697  90.0199 15.69963197  6545,6737.139,91.722,360.766,357.243,0.0
55274.0,STARLINK-5236,PAYLOAD,2023-02-27 02:40:01,15.69950077,0.0003308,70.0004,320.4595,267.6595,92.4222,0.00034324,0.00041306,0.0,0 STARLINK-5236,1 55274U 23010F   23058.11113010  .00041306  00000-0  34324-3 0  9998,2 55274  70.0004 320.4595 0003308 267.6595  92.4222 15.69950077  6565,6737.177,91.723,361.27,356.813,0.0
55274.0,STARLINK-5236,PAYLOAD,2023-02-27 17:57:31,15.70024361,0.0004803,70.0004,318.6668,247.4732,112.5956,0.00078445,0.00095616,0.0,0 STARLINK-5236,1 55274U 23010F   23058.74828122  .00095616  00000-0  78445-3 0  9999,2 55274  70.0004 318.6668 0004803 247.4732 112.5956 15.70024361  6664,6736.964,91.718,362.065,355.594,0.0
55274.0,STARLINK-5236,PAYLOAD,2023-02-27 21:01:02,15.69934554,0.0003457,70.0005,318.3089,271.8943,88.1857,0.00076403,0.00092718,0.0,0 STARLINK-5236,1 55274U 23010F   23058.87572360  .00092718  00000-0  76403-3 0  9995,2 55274  70.0005 318.3089 0003457 271.8943  88.1857 15.69934554  7007,6737.221,91.724,361.415,356.757,0.0
55274.0,STARLINK-5236,PAYLOAD,2023-02-28 03:08:02,15.69977204,0.0004556,69.9997,317.5931,272.2466,87.8208,0.00067227,0.00081611,0.0,0 STARLINK-5236,1 55274U 23010F   23059.13058510  .00081611  00000-0  67227-3 0  9995,2 55274  69.9997 317.5931 0004556 272.2466  87.8208 15.69977204  6720,6737.099,91.721,362.034,355.895,0.0
55274.0,STARLINK-5236,PAYLOAD,2023-02-28 18:25:35,15.69898054,0.0003625,70.0009,315.8013,274.8675,85.2107,0.00039527,0.00047536,0.0,0 STARLINK-5236,1 55274U 23010F   23059.76777609  .00047536  00000-0  39527-3 0  9991,2 55274  70.0009 315.8013 0003625 274.8675  85.2107 15.69898054  6821,6737.326,91.726,361.633,356.748,0.0
55274.0,STARLINK-5236,PAYLOAD,2023-02-28 23:00:51,15.69903691,0.0003391,70.0011,315.2639,268.5295,91.5512,0.00025471,0.000305,0.0,0 STARLINK-5236,1 55274U 23010F   23059.95892859  .00030500  00000-0  25471-3 0  9993,2 55274  70.0011 315.2639 0003391 268.5295  91.5512 15.69903691  7173,6737.31,91.725,361.459,356.89,0.0
55274.0,STARLINK-5236,PAYLOAD,2023-03-01 02:04:21,15.6990714,0.0002569,70.0013,314.9058,265.0369,95.0534,0.00018609,0.00022204,0.0,0 STARLINK-5236,1 55274U 23010F   23060.08636347  .00022204  00000-0  18609-3 0  9994,2 55274  70.0013 314.9058 0002569 265.0369  95.0534 15.69907140  6878,6737.3,91.725,360.895,357.434,0.0
55274.0,STARLINK-5236,PAYLOAD,2023-03-01 20:25:22,15.69957462,0.0002859,70.0019,312.7547,262.2405,97.8467,0.00019889,0.00023801,0.0,0 STARLINK-5236,1 55274U 23010F   23060.85095485  .00023801  00000-0  19889-3 0  9996,2 55274  70.0019 312.7547 0002859 262.2405  97.8467 15.69957462  7312,6737.156,91.722,360.947,357.095,0.0
55274.0,STARLINK-5236,PAYLOAD,2023-03-02 02:32:22,15.69938588,0.000354,70.0007,312.0394,257.5027,102.5772,0.00051875,0.00062669,0.0,0 STARLINK-5236,1 55274U 23010F   23061.10582098  .00062669  00000-0  51875-3 0  9992,2 55274  70.0007 312.0394 0003540 257.5027 102.5772 15.69938588  7037,6737.21,91.723,361.46,356.69,0.0
55274.0,STARLINK-5236,PAYLOAD,2023-03-02 19:21:38,15.69943585,0.0003788,70.0016,310.0692,251.9854,108.093,0.00017688,0.00021128,0.0,0 STARLINK-5236,1 55274U 23010F   23061.80670127  .00021128  00000-0  17688-3 0  9999,2 55274  70.0016 310.0692 0003788 251.9854 108.0930 15.69943585  7148,6737.195,91.723,361.612,356.508,0.0
55274.0,STARLINK-5236,PAYLOAD,2023-03-03 01:28:39,15.69956783,0.0003523,70.0012,309.3524,252.0795,108.0016,0.00023616,0.00028319,0.0,0 STARLINK-5236,1 55274U 23010F   23062.06156438  .00028319  00000-0  23616-3 0  9999,2 55274  70.0012 309.3524 0003523 252.0795 108.0016 15.69956783  7501,6737.158,91.722,361.396,356.649,0.0
55274.0,STARLINK-5236,PAYLOAD,2023-03-03 18:17:55,15.69941047,0.0003519,70.0003,307.3811,256.0752,104.0052,0.00020266,0.00024243,0.0,0 STARLINK-5236,1 55274U 23010F   23062.76244828  .00024243  00000-0  20266-3 0  9997,2 55274  70.0003 307.3811 0003519 256.0752 104.0052 15.69941047  7299,6737.203,91.723,361.438,356.697,0.0
55274.0,STARLINK-5236,PAYLOAD,2023-03-03 22:53:15,15.69669183,0.0009653,70.0015,306.8457,285.2362,74.7766,-0.0014791,-0.00173101,0.0,0 STARLINK-5236,1 55274U 23010F   23062.95365262 -.00173101  00000-0 -14791-2 0  9999,2 55274  70.0015 306.8457 0009653 285.2362  74.7766 15.69669183  7640,6737.981,91.739,366.35,353.341,0.0
55274.0,STARLINK-5236,PAYLOAD,2023-03-04 01:57:07,15.68472805,0.0005124,70.0006,306.4879,278.2994,81.762,-0.0082933,-0.00850109,0.0,0 STARLINK-5236,1 55274U 23010F   23063.08133821 -.00850109  00000-0 -82933-2 0  9991,2 55274  70.0006 306.4879 0005124 278.2994  81.7620 15.68472805  7342,6741.406,91.809,366.726,359.817,0.0
55274.0,STARLINK-5236,PAYLOAD,2023-03-04 14:00:01,15.69893029,0.0003643,70.0002,305.0746,264.2032,53.9246,0.00073383,0.00088853,0.0,0 STARLINK-5236,1 55274U 23010F   23063.58334491  .00088853  00000-0  73383-3 0  9999,2 55274  70.0002 305.0746 0003643 264.2032  53.9246 15.69893029  7428,6737.34,91.726,361.659,356.751,0.0
55274.0,STARLINK-5236,PAYLOAD,2023-03-04 15:42:45,15.69393154,0.0002022,70.0003,304.8745,251.4443,108.6533,-0.00070667,-0.00082507,0.0,0 STARLINK-5236,1 55274U 23010F   23063.65469529 -.00082507  00000-0 -70667-3 0  9992,2 55274  70.0003 304.8745 0002022 251.4443 108.6533 15.69393154  7431,6738.771,91.755,361.998,359.273,0.0
55274.0,STARLINK-5236,PAYLOAD,2023-03-06 01:20:49,15.70758522,0.0005705,70.0002,300.932,253.6647,106.3922,0.0055507,0.00756643,0.0,0 STARLINK-5236,1 55274U 23010F   23065.05612295  .00756643  00000-0  55507-2 0  9990,2 55274  70.0002 300.9320 0005705 253.6647 106.3922 15.70758522  7654,6734.865,91.675,360.572,352.888,0.0
55274.0,STARLINK-5236,PAYLOAD,2023-03-06 14:00:01,15.69892877,0.0003644,70.0,299.4518,264.8125,193.308,0.00079039,0.00095797,0.0,0 STARLINK-5236,1 55274U 23010F   23065.58334491  .00095797  00000-0  79039-3 0  9990,2 55274  70.0000 299.4518 0003644 264.8125 193.3080 15.69892877  7738,6737.34,91.726,361.661,356.75,0.0
55274.0,STARLINK-5236,PAYLOAD,2023-03-06 16:00:00,15.69943478,0.000366,70.0002,299.2175,265.0155,303.9218,0.00014746,0.0001757,0.0,0 STARLINK-5236,1 55274U 23010F   23065.66667824  .00017570  00000-0  14746-3 0  9995,2 55274  70.0002 299.2175 0003660 265.0155 303.9218 15.69943478  1304,6737.196,91.723,361.527,356.595,0.0
55274.0,STARLINK-5236,PAYLOAD,2023-03-07 06:00:00,15.69936347,0.0003564,69.9999,297.5773,276.5067,348.3261,-0.00058215,-0.00069673,0.0,0 STARLINK-5236,1 55274U 23010F   23066.25001157 -.00069673  00000-0 -58215-3 0  9994,2 55274  69.9999 297.5773 0003564 276.5067 348.3261 15.69936347  7846,6737.216,91.723,361.482,356.68,0.0
55274.0,STARLINK-5236,PAYLOAD,2023-03-07 14:00:01,15.69907114,0.0003602,70.0002,296.6403,268.8414,79.3183,0.00037902,0.00045579,0.0,0 STARLINK-5236,1 55274U 23010F   23066.58334491  .00045579  00000-0  37902-3 0  9997,2 55274  70.0002 296.6403 0003602 268.8414  79.3183 15.69907114  7896,6737.3,91.725,361.592,356.738,0.0
55274.0,STARLINK-5236,PAYLOAD,2023-03-07 22:00:00,15.69899417,0.0003731,70.0003,295.7031,269.227,162.2867,0.00015435,0.00018369,0.0,0 STARLINK-5236,1 55274U 23010F   23066.91667824  .00018369  00000-0  15435-3 0  9997,2 55274  70.0003 295.7031 0003731 269.2270 162.2867 15.69899417  1309,6737.322,91.726,361.7,356.673,0.0
55274.0,STARLINK-5236,PAYLOAD,2023-03-08 02:17:04,15.69902653,0.0003595,69.9987,295.2011,264.4237,95.6549,0.00019052,0.00022738,0.0,0 STARLINK-5236,1 55274U 23010F   23067.09518563  .00022738  00000-0  19052-3 0  9996,2 55274  69.9987 295.2011 0003595 264.4237  95.6549 15.69902653  7970,6737.313,91.725,361.6,356.755,0.0
55274.0,STARLINK-5236,PAYLOAD,2023-03-08 05:20:34,15.69915591,0.0003631,69.9996,294.8424,265.0039,95.0742,0.00036807,0.00044265,0.0,0 STARLINK-5236,1 55274U 23010F   23067.22262099  .00044265  00000-0  36807-3 0  9997,2 55274  69.9996 294.8424 0003631 265.0039  95.0742 15.69915591  7997,6737.275,91.725,361.587,356.694,0.0
55274.0,STARLINK-5236,PAYLOAD,2023-03-08 19:06:20,15.69958691,0.0003683,69.9994,293.2306,269.3866,90.6907,0.00039352,0.00047443,0.0,0 STARLINK-5236,1 55274U 23010F   23067.79607095  .00047443  00000-0  39352-3 0  9997,2 55274  69.9994 293.2306 0003683 269.3866  90.6907 15.69958691  8082,6737.152,91.722,361.498,356.536,0.0
55274.0,STARLINK-5236,PAYLOAD,2023-03-08 20:38:05,15.69969979,0.0003708,69.9994,293.0519,268.426,91.6511,0.00048574,0.00058718,0.0,0 STARLINK-5236,1 55274U 23010F   23067.85978651  .00058718  00000-0  48574-3 0  9996,2 55274  69.9994 293.0519 0003708 268.4260  91.6511 15.69969979  8412,6737.12,91.721,361.483,356.487,0.0
55274.0,STARLINK-5236,PAYLOAD,2023-03-09 01:13:21,15.69942424,0.000359,69.9999,292.5141,265.6055,94.473,0.0003099,0.00037245,0.0,0 STARLINK-5236,1 55274U 23010F   23068.05093813  .00037245  00000-0  30990-3 0  9992,2 55274  69.9999 292.5141 0003590 265.6055  94.4730 15.69942424  8120,6737.199,91.723,361.482,356.645,0.0
55274.0,STARLINK-5236,PAYLOAD,2023-03-09 18:02:37,15.6995485,0.0003617,69.9999,290.5432,280.1446,79.9342,0.0007661,0.00093054,0.0,0 STARLINK-5236,1 55274U 23010F   23068.75182357  .00093054  00000-0  76610-3 0  9990,2 55274  69.9999 290.5432 0003617 280.1446  79.9342 15.69954850  8232,6737.163,91.722,361.465,356.591,0.0
